[
    {
        "Altitude(m)": 564598.6347679999,
        "Argument of Periapsis(deg)": 0.019868973332140504,
        "Eccentricity": 0.0,
        "Inclination(deg)": 53.0,
        "Latitude(deg)": -35.31652163480107,
        "Longitude(deg)": -104.45015118739262,
        "Mean Anomaly(deg)": 313.9111786027327,
        "RAAN(deg)": 29.97043010558405,
        "Satellite Name": "Starlink Shell 1 149",
        "Satellite Number": 149,
        "Semi-Major Axis(m)": 6931778.249405717,
        "Time(s)": 570
    },
    {
        "Altitude(m)": 564425.959271779,
        "Argument of Periapsis(deg)": 0.02021755181165174,
        "Eccentricity": 0.0,
        "Inclination(deg)": 53.0,
        "Latitude(deg)": -34.89051066946798,
        "Longitude(deg)": -103.93124534703503,
        "Mean Anomaly(deg)": 314.5380098062895,
        "RAAN(deg)": 29.96991133550658,
        "Satellite Name": "Starlink Shell 1 149",
        "Satellite Number": 149,
        "Semi-Major Axis(m)": 6931778.249405717,
        "Time(s)": 580
    },
    {
        "Altitude(m)": 564252.7128782462,
        "Argument of Periapsis(deg)": 0.020566130291162974,
        "Eccentricity": 0.0,
        "Inclination(deg)": 53.0,
        "Latitude(deg)": -34.46190313873611,
        "Longitude(deg)": -103.41808976654644,
        "Mean Anomaly(deg)": 315.1648410098462,
        "RAAN(deg)": 29.9693925654291,
        "Satellite Name": "Starlink Shell 1 149",
        "Satellite Number": 149,
        "Semi-Major Axis(m)": 6931778.249405717,
        "Time(s)": 590
    },
    {
        "Altitude(m)": 564078.9618460801,
        "Argument of Periapsis(deg)": 0.020914708770674213,
        "Eccentricity": 0.0,
        "Inclination(deg)": 53.0,
        "Latitude(deg)": -34.03076454935182,
        "Longitude(deg)": -102.91056865887147,
        "Mean Anomaly(deg)": 315.791672213403,
        "RAAN(deg)": 29.968873795351627,
        "Satellite Name": "Starlink Shell 1 149",
        "Satellite Number": 149,
        "Semi-Major Axis(m)": 6931778.249405717,
        "Time(s)": 600
    },
    {
        "Altitude(m)": 563904.7725138055,
        "Argument of Periapsis(deg)": 0.021263287250185448,
        "Eccentricity": 0.0,
        "Inclination(deg)": 53.0,
        "Latitude(deg)": -33.597158934279335,
        "Longitude(deg)": -102.40856709154676,
        "Mean Anomaly(deg)": 316.4185034169596,
        "RAAN(deg)": 29.968355025274157,
        "Satellite Name": "Starlink Shell 1 149",
        "Satellite Number": 149,
        "Semi-Major Axis(m)": 6931778.249405717,
        "Time(s)": 610
    },
    {
        "Altitude(m)": 563730.2112701312,
        "Argument of Periapsis(deg)": 0.021611865729696686,
        "Eccentricity": 0.0,
        "Inclination(deg)": 53.0,
        "Latitude(deg)": -33.16114888464942,
        "Longitude(deg)": -101.91197055301895,
        "Mean Anomaly(deg)": 317.04533462051637,
        "RAAN(deg)": 29.967836255196683,
        "Satellite Name": "Starlink Shell 1 149",
        "Satellite Number": 149,
        "Semi-Major Axis(m)": 6931778.249405717,
        "Time(s)": 620
    },
    {
        "Altitude(m)": 563555.3445242828,
        "Argument of Periapsis(deg)": 0.02196044420920792,
        "Eccentricity": 0.0,
        "Inclination(deg)": 53.0,
        "Latitude(deg)": -32.72279558195898,
        "Longitude(deg)": -101.42066619227627,
        "Mean Anomaly(deg)": 317.672165824073,
        "RAAN(deg)": 29.96731748511921,
        "Satellite Name": "Starlink Shell 1 149",
        "Satellite Number": 149,
        "Semi-Major Axis(m)": 6931778.249405717,
        "Time(s)": 630
    },
    {
        "Altitude(m)": 563380.2386763119,
        "Argument of Periapsis(deg)": 0.02230902268871916,
        "Eccentricity": 0.0,
        "Inclination(deg)": 53.0,
        "Latitude(deg)": -32.28215883042589,
        "Longitude(deg)": -100.93454152983699,
        "Mean Anomaly(deg)": 318.2989970276297,
        "RAAN(deg)": 29.96679871504174,
        "Satellite Name": "Starlink Shell 1 149",
        "Satellite Number": 149,
        "Semi-Major Axis(m)": 6931778.249405717,
        "Time(s)": 640
    },
    {
        "Altitude(m)": 563204.9600873614,
        "Argument of Periapsis(deg)": 0.022657601168230398,
        "Eccentricity": 0.0,
        "Inclination(deg)": 53.0,
        "Latitude(deg)": -31.83929708941397,
        "Longitude(deg)": -100.45348568347276,
        "Mean Anomaly(deg)": 318.9258282311865,
        "RAAN(deg)": 29.966279944964267,
        "Satellite Name": "Starlink Shell 1 149",
        "Satellite Number": 149,
        "Semi-Major Axis(m)": 6931778.249405717,
        "Time(s)": 650
    },
    {
        "Altitude(m)": 563029.575049981,
        "Argument of Periapsis(deg)": 0.023006179647741636,
        "Eccentricity": 0.0,
        "Inclination(deg)": 53.0,
        "Latitude(deg)": -31.39426750584878,
        "Longitude(deg)": -99.97738890666923,
        "Mean Anomaly(deg)": 319.5526594347432,
        "RAAN(deg)": 29.965761174886794,
        "Satellite Name": "Starlink Shell 1 149",
        "Satellite Number": 149,
        "Semi-Major Axis(m)": 6931778.249405717,
        "Time(s)": 660
    },
    {
        "Altitude(m)": 562854.149758452,
        "Argument of Periapsis(deg)": 0.023354758127252868,
        "Eccentricity": 0.0,
        "Inclination(deg)": 53.0,
        "Latitude(deg)": -30.947125946554163,
        "Longitude(deg)": -99.50614212121663,
        "Mean Anomaly(deg)": 320.1794906382999,
        "RAAN(deg)": 29.96524240480932,
        "Satellite Name": "Starlink Shell 1 149",
        "Satellite Number": 149,
        "Semi-Major Axis(m)": 6931778.249405717,
        "Time(s)": 670
    },
    {
        "Altitude(m)": 562678.7502791255,
        "Argument of Periapsis(deg)": 0.023703336606764106,
        "Eccentricity": 0.0,
        "Inclination(deg)": 53.0,
        "Latitude(deg)": -30.497927030446668,
        "Longitude(deg)": -99.03963795720281,
        "Mean Anomaly(deg)": 320.80632184185663,
        "RAAN(deg)": 29.964723634731847,
        "Satellite Name": "Starlink Shell 1 149",
        "Satellite Number": 149,
        "Semi-Major Axis(m)": 6931778.249405717,
        "Time(s)": 680
    },
    {
        "Altitude(m)": 562503.442520821,
        "Argument of Periapsis(deg)": 0.024051915086275345,
        "Eccentricity": 0.0,
        "Inclination(deg)": 53.0,
        "Latitude(deg)": -30.04672416053005,
        "Longitude(deg)": -98.57777027503586,
        "Mean Anomaly(deg)": 321.4331530454133,
        "RAAN(deg)": 29.964204864654377,
        "Satellite Name": "Starlink Shell 1 149",
        "Satellite Number": 149,
        "Semi-Major Axis(m)": 6931778.249405717,
        "Time(s)": 690
    },
    {
        "Altitude(m)": 562328.2922052987,
        "Argument of Periapsis(deg)": 0.024400493565786583,
        "Eccentricity": 0.0,
        "Inclination(deg)": 53.0,
        "Latitude(deg)": -29.593569555640656,
        "Longitude(deg)": -98.12043368273144,
        "Mean Anomaly(deg)": 322.05998424897007,
        "RAAN(deg)": 29.963686094576897,
        "Satellite Name": "Starlink Shell 1 149",
        "Satellite Number": 149,
        "Semi-Major Axis(m)": 6931778.249405717,
        "Time(s)": 700
    },
    {
        "Altitude(m)": 562153.3648377908,
        "Argument of Periapsis(deg)": 0.024749072045297815,
        "Eccentricity": 0.0,
        "Inclination(deg)": 53.0,
        "Latitude(deg)": -29.13851428189773,
        "Longitude(deg)": -97.66752456168084,
        "Mean Anomaly(deg)": 322.6868154525268,
        "RAAN(deg)": 29.963167324499427,
        "Satellite Name": "Starlink Shell 1 149",
        "Satellite Number": 149,
        "Semi-Major Axis(m)": 6931778.249405717,
        "Time(s)": 710
    },
    {
        "Altitude(m)": 561978.7256776494,
        "Argument of Periapsis(deg)": 0.025097650524809053,
        "Eccentricity": 0.0,
        "Inclination(deg)": 53.0,
        "Latitude(deg)": -28.681608283818573,
        "Longitude(deg)": -97.21894057546785,
        "Mean Anomaly(deg)": 323.3136466560835,
        "RAAN(deg)": 29.962648554421957,
        "Satellite Name": "Starlink Shell 1 149",
        "Satellite Number": 149,
        "Semi-Major Axis(m)": 6931778.249405717,
        "Time(s)": 720
    },
    {
        "Altitude(m)": 561804.4397090449,
        "Argument of Periapsis(deg)": 0.02544622900432029,
        "Eccentricity": 0.0,
        "Inclination(deg)": 53.0,
        "Latitude(deg)": -28.222900415066807,
        "Longitude(deg)": -96.77458017491911,
        "Mean Anomaly(deg)": 323.94047785964017,
        "RAAN(deg)": 29.96212978434448,
        "Satellite Name": "Starlink Shell 1 149",
        "Satellite Number": 149,
        "Semi-Major Axis(m)": 6931778.249405717,
        "Time(s)": 730
    },
    {
        "Altitude(m)": 561630.5716118591,
        "Argument of Periapsis(deg)": 0.02579480748383153,
        "Eccentricity": 0.0,
        "Inclination(deg)": 53.0,
        "Latitude(deg)": -27.762438468798745,
        "Longitude(deg)": -96.33434361254317,
        "Mean Anomaly(deg)": 324.5673090631969,
        "RAAN(deg)": 29.96161101426701,
        "Satellite Name": "Starlink Shell 1 149",
        "Satellite Number": 149,
        "Semi-Major Axis(m)": 6931778.249405717,
        "Time(s)": 740
    },
    {
        "Altitude(m)": 561457.1857326584,
        "Argument of Periapsis(deg)": 0.026143385963342765,
        "Eccentricity": 0.0,
        "Inclination(deg)": 53.0,
        "Latitude(deg)": -27.300269207587185,
        "Longitude(deg)": -95.89813244088359,
        "Mean Anomaly(deg)": 325.19414026675366,
        "RAAN(deg)": 29.96109224418954,
        "Satellite Name": "Starlink Shell 1 149",
        "Satellite Number": 149,
        "Semi-Major Axis(m)": 6931778.249405717,
        "Time(s)": 750
    }
]